start=new Date('2022-08-27T00:00:00.000Z').valueOf();
sats=[{"GP_ID":"211053971","MEAN_MOTION_DDOT":"0.0000000000000","RA_OF_ASC_NODE":"143.6163","EPHEMERIS_TYPE":"0","TLE_LINE2":"2 52270  53.2184 143.6163 0002481  65.0802 225.9073 15.08871246 20711","MEAN_MOTION_DOT":"-0.00065727","SEMIMAJOR_AXIS":"6917.785","INCLINATION":"53.2184","OBJECT_NAME":"STARLINK-3804","NORAD_CAT_ID":"52270","BSTAR":"-0.00414580000000","LAUNCH_DATE":"2022-04-21","COUNTRY_CODE":"US","TLE_LINE1":"1 52270U 22041K   22238.91667824 -.00065727  00000-0 -41458-2 0  9998","ARG_OF_PERICENTER":"65.0802","PERIAPSIS":"537.934","REV_AT_EPOCH":"2071","OBJECT_ID":"2022-041K","RCS_SIZE":"LARGE","APOAPSIS":"541.366","CENTER_NAME":"EARTH","OBJECT_TYPE":"PAYLOAD","ECCENTRICITY":"0.00024810","REF_FRAME":"TEME","MEAN_MOTION":"15.08871246","EPOCH":"2022-08-26T22:00:00.999936","CLASSIFICATION_TYPE":"U","TIME_SYSTEM":"UTC","ELEMENT_SET_NO":"999","PERIOD":"95.436","DECAY_DATE":null,"FILE":"3548524","SITE":"AFETR","MEAN_ANOMALY":"225.9073","MEAN_ELEMENT_THEORY":"SGP4"},{"NORAD_CAT_ID":"52271","OBJECT_NAME":"STARLINK-3788","INCLINATION":"53.2170","MEAN_MOTION_DOT":"-0.00023068","SEMIMAJOR_AXIS":"6917.814","TLE_LINE2":"2 52271  53.2170 143.6192 0002156  60.0493 196.1315 15.08861637 20721","MEAN_MOTION_DDOT":"0.0000000000000","EPHEMERIS_TYPE":"0","RA_OF_ASC_NODE":"143.6192","GP_ID":"211053475","RCS_SIZE":"LARGE","PERIAPSIS":"538.188","OBJECT_ID":"2022-041L","REV_AT_EPOCH":"2072","ARG_OF_PERICENTER":"60.0493","COUNTRY_CODE":"US","TLE_LINE1":"1 52271U 22041L   22238.91667824 -.00023068  00000-0 -14350-2 0  9992","BSTAR":"-0.00143500000000","LAUNCH_DATE":"2022-04-21","CLASSIFICATION_TYPE":"U","EPOCH":"2022-08-26T22:00:00.999936","REF_FRAME":"TEME","MEAN_MOTION":"15.08861637","OBJECT_TYPE":"PAYLOAD","ECCENTRICITY":"0.00021560","CENTER_NAME":"EARTH","APOAPSIS":"541.171","MEAN_ELEMENT_THEORY":"SGP4","SITE":"AFETR","FILE":"3548567","DECAY_DATE":null,"MEAN_ANOMALY":"196.1315","PERIOD":"95.436","ELEMENT_SET_NO":"999","TIME_SYSTEM":"UTC"},{"CLASSIFICATION_TYPE":"U","EPOCH":"2022-08-26T22:00:00.999936","REF_FRAME":"TEME","MEAN_MOTION":"15.08856141","ECCENTRICITY":"0.00020910","OBJECT_TYPE":"PAYLOAD","CENTER_NAME":"EARTH","APOAPSIS":"541.143","MEAN_ELEMENT_THEORY":"SGP4","MEAN_ANOMALY":"250.0523","DECAY_DATE":null,"FILE":"3548620","SITE":"AFETR","PERIOD":"95.437","ELEMENT_SET_NO":"999","TIME_SYSTEM":"UTC","NORAD_CAT_ID":"52272","INCLINATION":"53.2174","OBJECT_NAME":"STARLINK-3781","SEMIMAJOR_AXIS":"6917.831","MEAN_MOTION_DOT":"-0.00025083","TLE_LINE2":"2 52272  53.2174 143.6158 0002091  60.9141 250.0523 15.08856141  1303","RA_OF_ASC_NODE":"143.6158","EPHEMERIS_TYPE":"0","MEAN_MOTION_DDOT":"0.0000000000000","GP_ID":"211079762","RCS_SIZE":"LARGE","PERIAPSIS":"538.250","OBJECT_ID":"2022-041M","REV_AT_EPOCH":"130","ARG_OF_PERICENTER":"60.9141","COUNTRY_CODE":"US","TLE_LINE1":"1 52272U 22041M   22238.91667824 -.00025083  00000-0 -15626-2 0  9999","LAUNCH_DATE":"2022-04-21","BSTAR":"-0.00156260000000"},{"GP_ID":"211079512","RA_OF_ASC_NODE":"133.6183","EPHEMERIS_TYPE":"0","MEAN_MOTION_DDOT":"0.0000000000000","TLE_LINE2":"2 52273  53.2171 133.6183 0001654  66.9897 218.9519 15.08845986  1309","SEMIMAJOR_AXIS":"6917.862","MEAN_MOTION_DOT":"-0.00021466","OBJECT_NAME":"STARLINK-3782","INCLINATION":"53.2171","NORAD_CAT_ID":"52273","LAUNCH_DATE":"2022-04-21","BSTAR":"-0.00133440000000","COUNTRY_CODE":"US","TLE_LINE1":"1 52273U 22041N   22238.91667824 -.00021466  00000-0 -13344-2 0  9996","ARG_OF_PERICENTER":"66.9897","PERIAPSIS":"538.583","OBJECT_ID":"2022-041N","REV_AT_EPOCH":"130","RCS_SIZE":"LARGE","APOAPSIS":"540.871","CENTER_NAME":"EARTH","ECCENTRICITY":"0.00016540","OBJECT_TYPE":"PAYLOAD","REF_FRAME":"TEME","MEAN_MOTION":"15.08845986","EPOCH":"2022-08-26T22:00:00.999936","CLASSIFICATION_TYPE":"U","TIME_SYSTEM":"UTC","ELEMENT_SET_NO":"999","PERIOD":"95.437","MEAN_ANOMALY":"218.9519","DECAY_DATE":null,"FILE":"3548620","SITE":"AFETR","MEAN_ELEMENT_THEORY":"SGP4"},{"MEAN_MOTION":"15.08846732","REF_FRAME":"TEME","CLASSIFICATION_TYPE":"U","EPOCH":"2022-08-26T22:00:00.999936","CENTER_NAME":"EARTH","APOAPSIS":"541.151","OBJECT_TYPE":"PAYLOAD","ECCENTRICITY":"0.00020610","FILE":"3548567","DECAY_DATE":null,"SITE":"AFETR","MEAN_ANOMALY":"267.8588","MEAN_ELEMENT_THEORY":"SGP4","TIME_SYSTEM":"UTC","PERIOD":"95.437","ELEMENT_SET_NO":"999","OBJECT_NAME":"STARLINK-3790","INCLINATION":"53.2172","MEAN_MOTION_DOT":"-0.00027063","SEMIMAJOR_AXIS":"6917.860","NORAD_CAT_ID":"52274","MEAN_MOTION_DDOT":"0.0000000000000","RA_OF_ASC_NODE":"143.6140","EPHEMERIS_TYPE":"0","GP_ID":"211053979","TLE_LINE2":"2 52274  53.2172 143.6140 0002061  68.3333 267.8588 15.08846732 20725","RCS_SIZE":"LARGE","PERIAPSIS":"538.299","OBJECT_ID":"2022-041P","REV_AT_EPOCH":"2072","BSTAR":"-0.00168830000000","LAUNCH_DATE":"2022-04-21","ARG_OF_PERICENTER":"68.3333","COUNTRY_CODE":"US","TLE_LINE1":"1 52274U 22041P   22238.91667824 -.00027063  00000-0 -16883-2 0  9997"},{"LAUNCH_DATE":"2022-04-21","BSTAR":"-0.00152900000000","TLE_LINE1":"1 52275U 22041Q   22238.91667824 -.00024546  00000-0 -15290-2 0  9992","COUNTRY_CODE":"US","ARG_OF_PERICENTER":"59.2210","PERIAPSIS":"538.250","OBJECT_ID":"2022-041Q","REV_AT_EPOCH":"130","RCS_SIZE":"LARGE","GP_ID":"211078511","EPHEMERIS_TYPE":"0","RA_OF_ASC_NODE":"143.6162","MEAN_MOTION_DDOT":"0.0000000000000","TLE_LINE2":"2 52275  53.2184 143.6162 0002122  59.2210 236.9167 15.08848992  1307","SEMIMAJOR_AXIS":"6917.853","MEAN_MOTION_DOT":"-0.00024546","INCLINATION":"53.2184","OBJECT_NAME":"STARLINK-3784","NORAD_CAT_ID":"52275","TIME_SYSTEM":"UTC","ELEMENT_SET_NO":"999","PERIOD":"95.437","MEAN_ANOMALY":"236.9167","FILE":"3548620","SITE":"AFETR","DECAY_DATE":null,"MEAN_ELEMENT_THEORY":"SGP4","APOAPSIS":"541.186","CENTER_NAME":"EARTH","ECCENTRICITY":"0.00021220","OBJECT_TYPE":"PAYLOAD","REF_FRAME":"TEME","MEAN_MOTION":"15.08848992","EPOCH":"2022-08-26T22:00:00.999936","CLASSIFICATION_TYPE":"U"},{"NORAD_CAT_ID":"52276","MEAN_MOTION_DOT":"-0.00028269","SEMIMAJOR_AXIS":"6917.800","OBJECT_NAME":"STARLINK-3778","INCLINATION":"53.2182","TLE_LINE2":"2 52276  53.2182 143.6263 0002280  63.8470 292.3096 15.08866242  1307","GP_ID":"211079262","MEAN_MOTION_DDOT":"0.0000000000000","RA_OF_ASC_NODE":"143.6263","EPHEMERIS_TYPE":"0","OBJECT_ID":"2022-041R","PERIAPSIS":"538.088","REV_AT_EPOCH":"130","RCS_SIZE":"LARGE","COUNTRY_CODE":"US","TLE_LINE1":"1 52276U 22041R   22238.91667824 -.00028269  00000-0 -17637-2 0  9996","ARG_OF_PERICENTER":"63.8470","BSTAR":"-0.00176370000000","LAUNCH_DATE":"2022-04-21","EPOCH":"2022-08-26T22:00:00.999936","CLASSIFICATION_TYPE":"U","REF_FRAME":"TEME","MEAN_MOTION":"15.08866242","OBJECT_TYPE":"PAYLOAD","ECCENTRICITY":"0.00022800","APOAPSIS":"541.242","CENTER_NAME":"EARTH","MEAN_ELEMENT_THEORY":"SGP4","DECAY_DATE":null,"FILE":"3548620","SITE":"AFETR","MEAN_ANOMALY":"292.3096","ELEMENT_SET_NO":"999","PERIOD":"95.436","TIME_SYSTEM":"UTC"},{"ECCENTRICITY":"0.00021070","OBJECT_TYPE":"PAYLOAD","CENTER_NAME":"EARTH","APOAPSIS":"541.133","CLASSIFICATION_TYPE":"U","EPOCH":"2022-08-26T22:00:00.999936","REF_FRAME":"TEME","MEAN_MOTION":"15.08862957","PERIOD":"95.436","ELEMENT_SET_NO":"999","TIME_SYSTEM":"UTC","MEAN_ELEMENT_THEORY":"SGP4","FILE":"3548620","SITE":"AFETR","DECAY_DATE":null,"MEAN_ANOMALY":"252.2769","TLE_LINE2":"2 52277  53.2171 143.6153 0002107  63.9150 252.2769 15.08862957  1309","MEAN_MOTION_DDOT":"0.0000000000000","EPHEMERIS_TYPE":"0","RA_OF_ASC_NODE":"143.6153","GP_ID":"211080013","NORAD_CAT_ID":"52277","INCLINATION":"53.2171","OBJECT_NAME":"STARLINK-3787","MEAN_MOTION_DOT":"-0.00024921","SEMIMAJOR_AXIS":"6917.810","ARG_OF_PERICENTER":"63.9150","COUNTRY_CODE":"US","TLE_LINE1":"1 52277U 22041S   22238.91667824 -.00024921  00000-0 -15521-2 0  9998","BSTAR":"-0.00155210000000","LAUNCH_DATE":"2022-04-21","RCS_SIZE":"LARGE","PERIAPSIS":"538.218","REV_AT_EPOCH":"130","OBJECT_ID":"2022-041S"},{"TLE_LINE2":"2 52278  53.2176 143.6194 0002152  66.6504 309.5383 15.08843012 20729","MEAN_MOTION_DDOT":"0.0000000000000","EPHEMERIS_TYPE":"0","RA_OF_ASC_NODE":"143.6194","GP_ID":"211053987","NORAD_CAT_ID":"52278","INCLINATION":"53.2176","OBJECT_NAME":"STARLINK-3780","MEAN_MOTION_DOT":"-0.00029142","SEMIMAJOR_AXIS":"6917.871","ARG_OF_PERICENTER":"66.6504","TLE_LINE1":"1 52278U 22041T   22238.91667824 -.00029142  00000-0 -18201-2 0  9997","COUNTRY_CODE":"US","BSTAR":"-0.00182010000000","LAUNCH_DATE":"2022-04-21","RCS_SIZE":"LARGE","PERIAPSIS":"538.247","REV_AT_EPOCH":"2072","OBJECT_ID":"2022-041T","OBJECT_TYPE":"PAYLOAD","ECCENTRICITY":"0.00021520","CENTER_NAME":"EARTH","APOAPSIS":"541.225","CLASSIFICATION_TYPE":"U","EPOCH":"2022-08-26T22:00:00.999936","REF_FRAME":"TEME","MEAN_MOTION":"15.08843012","PERIOD":"95.437","ELEMENT_SET_NO":"999","TIME_SYSTEM":"UTC","MEAN_ELEMENT_THEORY":"SGP4","SITE":"AFETR","FILE":"3548525","DECAY_DATE":null,"MEAN_ANOMALY":"309.5383"},{"LAUNCH_DATE":"2022-04-21","BSTAR":"-0.00167500000000","COUNTRY_CODE":"US","TLE_LINE1":"1 52279U 22041U   22238.91667824 -.00026865  00000-0 -16750-2 0  9994","ARG_OF_PERICENTER":"63.0215","PERIAPSIS":"538.392","REV_AT_EPOCH":"130","OBJECT_ID":"2022-041U","RCS_SIZE":"LARGE","GP_ID":"211079012","EPHEMERIS_TYPE":"0","RA_OF_ASC_NODE":"143.6153","MEAN_MOTION_DDOT":"0.0000000000000","TLE_LINE2":"2 52279  53.2185 143.6153 0001848  63.0215 267.9602 15.08864586  1309","SEMIMAJOR_AXIS":"6917.805","MEAN_MOTION_DOT":"-0.00026865","OBJECT_NAME":"STARLINK-3686","INCLINATION":"53.2185","NORAD_CAT_ID":"52279","TIME_SYSTEM":"UTC","ELEMENT_SET_NO":"999","PERIOD":"95.436","MEAN_ANOMALY":"267.9602","DECAY_DATE":null,"FILE":"3548620","SITE":"AFETR","MEAN_ELEMENT_THEORY":"SGP4","APOAPSIS":"540.949","CENTER_NAME":"EARTH","ECCENTRICITY":"0.00018480","OBJECT_TYPE":"PAYLOAD","MEAN_MOTION":"15.08864586","REF_FRAME":"TEME","EPOCH":"2022-08-26T22:00:00.999936","CLASSIFICATION_TYPE":"U"}];
